NORAD_CAT_ID,OBJECT_NAME,OBJECT_TYPE,EPOCH,MEAN_MOTION,ECCENTRICITY,INCLINATION,RA_OF_ASC_NODE,ARG_OF_PERICENTER,MEAN_ANOMALY,BSTAR,MEAN_MOTION_DOT,MEAN_MOTION_DDOT,TLE_LINE0,TLE_LINE1,TLE_LINE2,SEMIMAJOR_AXIS,PERIOD,APOGEE,PERIGEE,DECAYED
53721.0,STARLINK-4707,PAYLOAD,2022-10-27 14:00:01,15.49870492,0.0001703,53.2134,14.2489,40.4137,16.5075,0.00067512,0.00038032,0.0,0 STARLINK-4707,1 53721U 22107X   22300.58335648  .00038032  00000-0  67512-3 0  9999,2 53721  53.2134  14.2489 0001703  40.4137  16.5075 15.49870492  1303,6795.2419999999975,92.911,418.264,415.949,0.0
53721.0,STARLINK-4707,PAYLOAD,2022-10-27 22:00:00,15.49936019,0.0001725,53.2152,12.6545,41.9012,75.8593,-0.00099292,-0.00056504,0.0,0 STARLINK-4707,1 53721U 22107X   22300.91667824 -.00056504  00000-0 -99292-3 0  9996,2 53721  53.2152  12.6545 0001725  41.9012  75.8593 15.49936019  1301,6795.05,92.907,418.087,415.74300000000005,0.0
53721.0,STARLINK-4707,PAYLOAD,2022-10-28 08:00:01,15.49766041,0.0001587,53.217,10.6624,39.6631,244.3718,-0.022539,-0.01164284,0.0,0 STARLINK-4707,1 53721U 22107X   22301.33335648 -.01164284  00000-0 -22539-1 0  9993,2 53721  53.2170  10.6624 0001587  39.6631 244.3718 15.49766041  8477,6795.547,92.917,418.49,416.333,0.0
53721.0,STARLINK-4707,PAYLOAD,2022-10-28 14:00:01,15.49139629,0.0001486999999999,53.217,9.47,52.5572,186.7678,-0.022529,-0.01123821,0.0,0 STARLINK-4707,1 53721U 22107X   22301.58335648 -.01123821  00000-0 -22529-1 0  9991,2 53721  53.2170   9.4700 0001487  52.5572 186.7678 15.49139629  1300,6797.379,92.955,420.254,418.233,0.0
53721.0,STARLINK-4707,PAYLOAD,2022-10-28 22:00:01,15.48332861,0.0001530999999999,53.2171,7.8782,40.546,258.3006,-0.023433,-0.01151729,0.0,0 STARLINK-4707,1 53721U 22107X   22301.91668981 -.01151729  00000-0 -23433-1 0  9990,2 53721  53.2171   7.8782 0001531  40.5460 258.3006 15.48332861  1309,6799.74,93.003,422.646,420.564,0.0
53721.0,STARLINK-4707,PAYLOAD,2022-10-29 12:00:00,15.46965029,0.0001626999999999,53.217,5.1011,43.0224,267.5421,-0.026298,-0.01224881,0.0,0 STARLINK-4707,1 53721U 22107X   22302.50001157 -.01224881  00000-0 -26298-1 0  9994,2 53721  53.2170   5.1011 0001627  43.0224 267.5421 15.46965029  1305,6803.746999999999,93.085,426.719,424.505,0.0
53721.0,STARLINK-4707,PAYLOAD,2022-10-29 22:00:01,15.458857,0.0001776999999999,53.2174,3.1187,33.9593,77.5923,-0.025281,-0.01141824,0.0,0 STARLINK-4707,1 53721U 22107X   22302.91668981 -.01141824  00000-0 -25281-1 0  9999,2 53721  53.2174   3.1187 0001777  33.9593  77.5923 15.45885700  1306,6806.9140000000025,93.15,429.98800000000006,427.569,0.0
53721.0,STARLINK-4707,PAYLOAD,2022-10-30 00:00:00,15.45681611,0.0001720999999999,53.2175,2.7225,39.7125,175.7694,-0.02541,-0.01139754,0.0,0 STARLINK-4707,1 53721U 22107X   22303.00001157 -.01139754  00000-0 -25410-1 0  9999,2 53721  53.2175   2.7225 0001721  39.7125 175.7694 15.45681611  8734,6807.513000000001,93.163,430.55,428.206,0.0
53721.0,STARLINK-4707,PAYLOAD,2022-10-30 14:00:01,15.44269688,0.0001606,53.2172,359.9573,48.237,173.4893,-0.027106,-0.01156623,0.0,0 STARLINK-4707,1 53721U 22107X   22303.58334491 -.01156623  00000-0 -27106-1 0  9990,2 53721  53.2172 359.9573 0001606  48.2370 173.4893 15.44269688  1300,6811.6619999999975,93.248,434.621,432.4330000000001,0.0
53721.0,STARLINK-4707,PAYLOAD,2022-10-30 22:00:01,15.43445978,0.0001498,53.2175,358.3768,44.5838,230.8689,-0.027531,-0.01143402,0.0,0 STARLINK-4707,1 53721U 22107X   22303.91668981 -.01143402  00000-0 -27531-1 0  9994,2 53721  53.2175 358.3768 0001498  44.5838 230.8689 15.43445978  1307,6814.085,93.298,436.971,434.929,0.0
53721.0,STARLINK-4707,PAYLOAD,2022-10-31 14:00:01,15.41822422,0.0001615,53.2169,355.2272,33.9409,345.8230000000001,-0.0292139999999999,-0.01148079,0.0,0 STARLINK-4707,1 53721U 22107X   22304.58334491 -.01148079  00000-0 -29214-1 0  9999,2 53721  53.2169 355.2272 0001615  33.9409 345.8230 15.41822422  1303,6818.868,93.396,441.834,439.632,0.0
53721.0,STARLINK-4707,PAYLOAD,2022-10-31 22:00:01,15.41002532,0.0001621999999999,53.2172,353.6524,38.3639,32.191,-0.029794,-0.01139878,0.0,0 STARLINK-4707,1 53721U 22107X   22304.91668981 -.01139878  00000-0 -29794-1 0  9990,2 53721  53.2172 353.6524 0001622  38.3639  32.1910 15.41002532  9032,6821.286,93.446,444.258,442.045,0.0
53721.0,STARLINK-4707,PAYLOAD,2022-11-01 14:00:01,15.3937853,0.0001719,53.2168,350.5145,46.6808,122.318,-0.031531,-0.01142673,0.0,0 STARLINK-4707,1 53721U 22107X   22305.58334491 -.01142673  00000-0 -31531-1 0  9999,2 53721  53.2168 350.5145 0001719  46.6808 122.3180 15.39378530  1303,6826.083000000001,93.544,449.121,446.774,0.0
53721.0,STARLINK-4707,PAYLOAD,2022-11-01 22:00:00,15.3856092,0.0001656,53.2175,348.9456,44.0734,172.7176,-0.03224,-0.0113772,0.0,0 STARLINK-4707,1 53721U 22107X   22305.91667824 -.01137720  00000-0 -32240-1 0  9990,2 53721  53.2175 348.9456 0001656  44.0734 172.7176 15.38560920  1306,6828.501,93.594,451.497,449.235,0.0
53721.0,STARLINK-4707,PAYLOAD,2022-11-02 14:00:01,15.3693302,0.0001585999999999,53.2173,345.8192,39.2042,270.23,-0.033957,-0.01136271,0.0,0 STARLINK-4707,1 53721U 22107X   22306.58334491 -.01136271  00000-0 -33957-1 0  9991,2 53721  53.2173 345.8192 0001586  39.2042 270.2300 15.36933020  1303,6833.321999999999,93.693,456.271,454.103,0.0
53721.0,STARLINK-4707,PAYLOAD,2022-11-02 22:00:00,15.36119633,0.0001398,53.2174,344.2561,43.4003,310.8907,-0.034917,-0.01137763,0.0,0 STARLINK-4707,1 53721U 22107X   22306.91667824 -.01137763  00000-0 -34917-1 0  9991,2 53721  53.2174 344.2561 0001398  43.4003 310.8907 15.36119633  1302,6835.734,93.743,458.555,456.643,0.0
53721.0,STARLINK-4707,PAYLOAD,2022-11-03 08:00:01,15.35101592,0.0001919,53.2171,342.3084,37.7311,101.254,-0.036044,-0.0113677,0.0,0 STARLINK-4707,1 53721U 22107X   22307.33334491 -.01136770  00000-0 -36044-1 0  9999,2 53721  53.2171 342.3084 0001919  37.7311 101.2540 15.35101592  9403,6838.755999999999,93.805,461.9330000000001,459.3080000000001,0.0
53721.0,STARLINK-4707,PAYLOAD,2022-11-03 14:00:01,15.34499892,0.0001716,53.2167,341.1411,35.1585,45.9047,-0.037118,-0.01147205,0.0,0 STARLINK-4707,1 53721U 22107X   22307.58334491 -.01147205  00000-0 -37118-1 0  9994,2 53721  53.2167 341.1411 0001716  35.1585  45.9047 15.34499892  1308,6840.543000000002,93.842,463.582,461.235,0.0
53721.0,STARLINK-4707,PAYLOAD,2022-11-03 22:00:00,15.33677715,0.0001672,53.2174,339.584,40.8637,82.1267,-0.037705,-0.0113616,0.0,0 STARLINK-4707,1 53721U 22107X   22307.91667824 -.01136160  00000-0 -37705-1 0  9990,2 53721  53.2174 339.5840 0001672  40.8637  82.1267 15.33677715  1303,6842.988,93.892,465.997,463.709,0.0
53721.0,STARLINK-4707,PAYLOAD,2022-11-04 06:00:00,15.3286454,0.0001769,53.2175,338.0313,43.7643,120.1693,-0.038716,-0.01136823,0.0,0 STARLINK-4707,1 53721U 22107X   22308.25001157 -.01136823  00000-0 -38716-1 0  9998,2 53721  53.2175 338.0313 0001769  43.7643 120.1693 15.32864540  9542,6845.408,93.942,468.484,466.062,0.0
53721.0,STARLINK-4707,PAYLOAD,2022-11-04 14:00:01,15.32049926,0.0001744,53.2173,336.4807,43.2207,160.6786,-0.039645,-0.01134695,0.0,0 STARLINK-4707,1 53721U 22107X   22308.58334491 -.01134695  00000-0 -39645-1 0  9991,2 53721  53.2173 336.4807 0001744  43.2207 160.6786 15.32049926  1305,6847.834,93.992,470.893,468.505,0.0
53721.0,STARLINK-4707,PAYLOAD,2022-11-04 22:00:01,15.31222093,0.0001671,53.2171,334.9289,36.8727,206.0865,-0.039929,-0.01115236,0.0,0 STARLINK-4707,1 53721U 22107X   22308.91668981 -.01115236  00000-0 -39929-1 0  9997,2 53721  53.2171 334.9289 0001671  36.8727 206.0865 15.31222093  1304,6850.302,94.043,473.312,471.022,0.0
53721.0,STARLINK-4707,PAYLOAD,2022-11-05 06:00:00,15.3046402,0.0001551,53.217,333.3819,45.63800000000001,235.2416,-0.044007,-0.01209054,0.0,0 STARLINK-4707,1 53721U 22107X   22309.25001157 -.01209054  00000-0 -44007-1 0  9996,2 53721  53.2170 333.3819 0001551  45.6380 235.2416 15.30464020  9698,6852.564,94.089,475.492,473.366,0.0
53721.0,STARLINK-4707,PAYLOAD,2022-11-05 14:00:01,15.29609266,0.0001778,53.2168,331.837,35.3069,282.6874,-0.042819,-0.01135359,0.0,0 STARLINK-4707,1 53721U 22107X   22309.58335648 -.01135359  00000-0 -42819-1 0  9992,2 53721  53.2168 331.8370 0001778  35.3069 282.6874 15.29609266  1306,6855.116,94.142,478.2,475.763,0.0
53721.0,STARLINK-4707,PAYLOAD,2022-11-05 22:00:01,15.28793902,0.0001667,53.2174,330.2915,33.9324,320.1184,-0.043829,-0.01133315,0.0,0 STARLINK-4707,1 53721U 22107X   22309.91668981 -.01133315  00000-0 -43829-1 0  9990,2 53721  53.2174 330.2915 0001667  33.9324 320.1184 15.28793902  9799,6857.554,94.192,480.562,478.275,0.0
53721.0,STARLINK-4707,PAYLOAD,2022-11-06 14:00:01,15.27197903,0.0001917,53.2163,327.2109,32.2381,30.9076,-0.047845,-0.01190045,0.0,0 STARLINK-4707,1 53721U 22107X   22310.58334491 -.01190045  00000-0 -47845-1 0  9996,2 53721  53.2163 327.2109 0001917  32.2381  30.9076 15.27197903  1304,6862.33,94.29,485.511,482.88,0.0
53721.0,STARLINK-4707,PAYLOAD,2022-11-06 22:00:00,15.26368745,0.000199,53.2168,325.6711,28.6501,67.6263,-0.0482,-0.01170568,0.0,0 STARLINK-4707,1 53721U 22107X   22310.91667824 -.01170568  00000-0 -48200-1 0  9996,2 53721  53.2168 325.6711 0001990  28.6501  67.6263 15.26368745  9951,6864.815,94.342,488.047,485.314,0.0
53721.0,STARLINK-4707,PAYLOAD,2022-11-07 22:00:00,15.23913229,0.0001789,53.2172,321.0682,42.9025,146.8775,-0.050971,-0.01150952,0.0,0 STARLINK-4707,1 53721U 22107X   22311.91667824 -.01150952  00000-0 -50971-1 0  9990,2 53721  53.2172 321.0682 0001789  42.9025 146.8775 15.23913229  1308,6872.188,94.494,495.282,492.823,0.0
53721.0,STARLINK-4707,PAYLOAD,2022-11-08 00:00:02,15.23743935,0.000166,53.2164,320.6846,44.3911,242.8272,-0.053291,-0.01193581,0.0,0 STARLINK-4707,1 53721U 22107X   22312.00002315 -.01193581  00000-0 -53291-1 0  9992,2 53721  53.2164 320.6846 0001660  44.3911 242.8272 15.23743935 10117,6872.696999999999,94.504,495.703,493.421,0.0
